STARLINK-4584           
1 53571U 22101AW  26026.61221468  .00000245  00000+0  33475-4 0  9999
2 53571  53.2149 242.9622 0001352  86.6809 273.4338 15.08845262190788
STARLINK-4555           
1 53572U 22101AX  26026.58642099 -.00000041  00000+0  15528-4 0  9997
2 53572  53.2152 242.8063 0001123  92.8785 267.2336 15.08845600190098
STARLINK-4559           
1 53574U 22101AZ  26025.86146983  .00011158  00000+0  71785-3 0  9996
2 53574  53.2172 246.0994 0002442  87.3991 272.7281 15.08850121189984
STARLINK-4551           
1 53575U 22101BA  26026.59748208  .00000649  00000+0  58878-4 0  9998
2 53575  53.2175 242.8727 0001548  90.9424 269.1745 15.08850359190781
STARLINK-4581           
1 53576U 22101BB  26026.59843396  .00001954  00000+0  14083-3 0  9992
2 53576  53.2145 242.8772 0002071  95.3960 264.7268 15.08850630190913
STARLINK-4553           
1 53577U 22101BC  26026.32883257 -.00000117  00000+0  10713-4 0  9992
2 53577  53.2128 244.0379 0001398  83.5266 276.5885 15.08845359190874
STARLINK-4556           
1 53578U 22101BD  26026.58274378  .00017266  00000+0  10997-2 0  9993
2 53578  53.2116 242.7805 0002192  88.2689 271.8555 15.08857543190099
STARLINK-4580           
1 53579U 22101BE  26026.57904347  .00004500  00000+0  30046-3 0  9994
2 53579  53.2172 242.7560 0000725 108.9091 251.1980 15.08859233190098
CHUANGXIN 16A (CX-16A)  
1 53586U 22102A   26026.53572819  .00003772  00000+0  24652-3 0  9990
2 53586  28.9940 172.7592 0004708 319.4579  40.5669 15.05321241188158
BEIJING-3B              
1 53587U 22103A   26026.64394299  .00002740  00000+0  30383-3 0  9990
2 53587  97.8141 106.4688 0027898 148.3981 211.8918 14.87815482186059
STARLINK-4691           
1 53588U 22104A   26026.51013155  .00000048  00000+0  21133-4 0  9990
2 53588  53.2160  73.7214 0001333  95.0759 265.0385 15.08842079189727
STARLINK-4673           
1 53589U 22104B   26026.42547192 -.00000621  00000+0 -20936-4 0  9993
2 53589  53.2179  73.9019 0001518  91.4375 268.6791 15.08837991189561
STARLINK-4689           
1 53590U 22104C   26026.50646506 -.00003572  00000+0 -20656-3 0  9999
2 53590  53.2167  73.6982 0001265 116.9516 243.1606 15.08820233189592
STARLINK-4674           
1 53591U 22104D   26026.50275695  .00000021  00000+0  19414-4 0  9992
2 53591  53.2172  73.6722 0001523  75.1541 284.9620 15.08849631189594
STARLINK-4672           
1 53592U 22104E   26026.50003868 -.00000128  00000+0  10066-4 0  9997
2 53592  53.2189  73.6571 0001525  94.0267 266.0899 15.08838162189576
STARLINK-4681           
1 53594U 22104G   26026.55057205  .00001117  00000+0  88261-4 0  9998
2 53594  53.2164  73.2632 0001070  91.1811 268.9304 15.08841303189723
STARLINK-4684           
1 53595U 22104H   26026.42178020  .00000470  00000+0  47590-4 0  9995
2 53595  53.2173  73.8795 0001339  92.2085 267.9061 15.08840403189564
STARLINK-4676           
1 53598U 22104L   26026.52847446 -.00000255  00000+0  20474-5 0  9999
2 53598  53.2180  73.1241 0001327  88.7730 271.3415 15.08832896189253
STARLINK-4677           
1 53600U 22104N   26026.39334025 -.00004195  00000+0 -24558-3 0  9995
2 53600  53.2169  74.4003 0001165  98.7108 261.4016 15.08850203189220
STARLINK-4675           
1 53601U 22104P   26026.53952696  .00003720  00000+0  25157-3 0  9999
2 53601  53.2177  73.1954 0001657  86.3520 273.7661 15.08855429189258
STARLINK-4648           
1 53602U 22104Q   26026.41303273 -.00000879  00000+0 -37122-4 0  9998
2 53602  53.2164  68.8470 0001518 104.4587 255.6574 15.08843697189302
STARLINK-4692           
1 53603U 22104R   26026.50137971  .00001151  00000+0  90386-4 0  9992
2 53603  53.2199  68.6804 0001814  74.6008 285.5185 15.08841347189316
STARLINK-4690           
1 53604U 22104S   26026.40566514  .00001406  00000+0  10641-3 0  9999
2 53604  53.2172  68.7991 0001213  88.6697 271.4434 15.08836816189303
STARLINK-4693           
1 53605U 22104T   26026.53215391 -.00000722  00000+0 -27280-4 0  9998
2 53605  53.2174  73.1510 0001468 100.7786 259.3371 15.08847157189259
STARLINK-4590           
1 53606U 22104U   26026.36383397 -.00000221  00000+0  42225-5 0  9992
2 53606  53.2182  64.2428 0001216  87.5929 272.5203 15.08847045189246
STARLINK-4591           
1 53607U 22104V   26026.42408580  .00000705  00000+0  62348-4 0  9995
2 53607  53.2177  68.9100 0001218  87.5291 272.5840 15.08848365189303
STARLINK-4647           
1 53608U 22104W   26026.50368423  .00000523  00000+0  50956-4 0  9996
2 53608  53.2190  63.6934 0001520  95.2066 264.9100 15.08846147189263
STARLINK-4660           
1 53609U 22104X   26026.52340622  .00003512  00000+0  23861-3 0  9995
2 53609  53.2172  68.1130 0001490  80.1876 279.9285 15.08840855189327
STARLINK-4610           
1 53610U 22104Y   26026.36479259 -.00002267  00000+0 -12431-3 0  9997
2 53610  53.2187  64.2485 0001486  89.0290 271.0873 15.08854846189240
STARLINK-4658           
1 53612U 22104AA  26026.36014854 -.00000989  00000+0 -44079-4 0  9998
2 53612  53.2172  64.2187 0001370  95.1774 264.9375 15.08843250189247
