OBJECT_NAME,OBJECT_ID,EPOCH,MEAN_MOTION,ECCENTRICITY,INCLINATION,RA_OF_ASC_NODE,ARG_OF_PERICENTER,MEAN_ANOMALY,EPHEMERIS_TYPE,CLASSIFICATION_TYPE,NORAD_CAT_ID,ELEMENT_SET_NO,REV_AT_EPOCH,BSTAR,MEAN_MOTION_DOT,MEAN_MOTION_DDOT
STARLINK-4584,2022-101AW,2026-01-26T14:41:35.348352,15.08845262,.00013526,53.2149,242.9622,86.6809,273.4338,0,U,53571,999,19078,.33474824E-4,.245E-5,0
STARLINK-4555,2022-101AX,2026-01-26T14:04:26.773536,15.08845600,.00011232,53.2152,242.8063,92.8785,267.2336,0,U,53572,999,19009,.15528382E-4,-.41E-6,0
STARLINK-4559,2022-101AZ,2026-01-25T20:40:30.993312,15.08850121,.00024424,53.2172,246.0994,87.3991,272.7281,0,U,53574,999,18998,.7178514E-3,.11158E-3,0
STARLINK-4551,2022-101BA,2026-01-26T14:20:22.451712,15.08850359,.00015487,53.2175,242.8727,90.9424,269.1745,0,U,53575,999,19078,.5887822E-4,.649E-5,0
STARLINK-4581,2022-101BB,2026-01-26T14:21:44.694144,15.08850630,.00020712,53.2145,242.8772,95.3960,264.7268,0,U,53576,999,19091,.14082767E-3,.1954E-4,0
STARLINK-4553,2022-101BC,2026-01-26T07:53:31.134048,15.08845359,.00013986,53.2128,244.0379,83.5266,276.5885,0,U,53577,999,19087,.10712769E-4,-.117E-5,0
STARLINK-4556,2022-101BD,2026-01-26T13:59:09.062592,15.08857543,.00021922,53.2116,242.7805,88.2689,271.8555,0,U,53578,999,19009,.10996939E-2,.17266E-3,0
STARLINK-4580,2022-101BE,2026-01-26T13:53:49.355808,15.08859233,.00007255,53.2172,242.7560,108.9091,251.1980,0,U,53579,999,19009,.30045955E-3,.45E-4,0
CHUANGXIN 16A (CX-16A),2022-102A,2026-01-26T12:51:26.915616,15.05321241,.0004708,28.9940,172.7592,319.4579,40.5669,0,U,53586,999,18815,.24652E-3,.3772E-4,0
BEIJING-3B,2022-103A,2026-01-26T15:27:16.674336,14.87815482,.0027898,97.8141,106.4688,148.3981,211.8918,0,U,53587,999,18605,.30382904E-3,.274E-4,0
STARLINK-4691,2022-104A,2026-01-26T12:14:35.365920,15.08842079,.00013337,53.2160,73.7214,95.0759,265.0385,0,U,53588,999,18972,.21133306E-4,.48E-6,0
STARLINK-4673,2022-104B,2026-01-26T10:12:40.773888,15.08837991,.00015184,53.2179,73.9019,91.4375,268.6791,0,U,53589,999,18956,-.20935723E-4,-.621E-5,0
STARLINK-4689,2022-104C,2026-01-26T12:09:18.581184,15.08820233,.00012654,53.2167,73.6982,116.9516,243.1606,0,U,53590,999,18959,-.20655828E-3,-.3572E-4,0
STARLINK-4674,2022-104D,2026-01-26T12:03:58.200480,15.08849631,.00015236,53.2172,73.6722,75.1541,284.9620,0,U,53591,999,18959,.19413799E-4,.21E-6,0
STARLINK-4672,2022-104E,2026-01-26T12:00:03.341952,15.08838162,.00015252,53.2189,73.6571,94.0267,266.0899,0,U,53592,999,18957,.1006632E-4,-.128E-5,0
STARLINK-4681,2022-104G,2026-01-26T13:12:49.425120,15.08841303,.00010703,53.2164,73.2632,91.1811,268.9304,0,U,53594,999,18972,.88260732E-4,.1117E-4,0
STARLINK-4684,2022-104H,2026-01-26T10:07:21.809280,15.08840403,.00013392,53.2173,73.8795,92.2085,267.9061,0,U,53595,999,18956,.47589504E-4,.47E-5,0
STARLINK-4676,2022-104L,2026-01-26T12:41:00.193344,15.08832896,.00013277,53.2180,73.1241,88.7730,271.3415,0,U,53598,999,18925,.2047443E-5,-.255E-5,0
STARLINK-4677,2022-104N,2026-01-26T09:26:24.597600,15.08850203,.00011656,53.2169,74.4003,98.7108,261.4016,0,U,53600,999,18922,-.24557513E-3,-.4195E-4,0
STARLINK-4675,2022-104P,2026-01-26T12:56:55.129344,15.08855429,.00016577,53.2177,73.1954,86.3520,273.7661,0,U,53601,999,18925,.25156961E-3,.372E-4,0
STARLINK-4648,2022-104Q,2026-01-26T09:54:46.027872,15.08843697,.00015189,53.2164,68.8470,104.4587,255.6574,0,U,53602,999,18930,-.37121802E-4,-.879E-5,0
STARLINK-4692,2022-104R,2026-01-26T12:01:59.206944,15.08841347,.00018147,53.2199,68.6804,74.6008,285.5185,0,U,53603,999,18931,.9038561E-4,.1151E-4,0
STARLINK-4690,2022-104S,2026-01-26T09:44:09.468096,15.08836816,.00012136,53.2172,68.7991,88.6697,271.4434,0,U,53604,999,18930,.10640538E-3,.1406E-4,0
STARLINK-4693,2022-104T,2026-01-26T12:46:18.097824,15.08847157,.00014682,53.2174,73.1510,100.7786,259.3371,0,U,53605,999,18925,-.27280477E-4,-.722E-5,0
STARLINK-4590,2022-104U,2026-01-26T08:43:55.255008,15.08847045,.00012168,53.2182,64.2428,87.5929,272.5203,0,U,53606,999,18924,.422249E-5,-.221E-5,0
STARLINK-4591,2022-104V,2026-01-26T10:10:41.013120,15.08848365,.00012182,53.2177,68.9100,87.5291,272.5840,0,U,53607,999,18930,.6234772E-4,.705E-5,0
STARLINK-4647,2022-104W,2026-01-26T12:05:18.317472,15.08846147,.00015205,53.2190,63.6934,95.2066,264.9100,0,U,53608,999,18926,.50955926E-4,.523E-5,0
STARLINK-4660,2022-104X,2026-01-26T12:33:42.297408,15.08840855,.00014908,53.2172,68.1130,80.1876,279.9285,0,U,53609,999,18932,.23861178E-3,.3512E-4,0
STARLINK-4610,2022-104Y,2026-01-26T08:45:18.079776,15.08854846,.00014866,53.2187,64.2485,89.0290,271.0873,0,U,53610,999,18924,-.12430812E-3,-.2267E-4,0
STARLINK-4658,2022-104AA,2026-01-26T08:38:36.833856,15.08843250,.00013709,53.2172,64.2187,95.1774,264.9375,0,U,53612,999,18924,-.4407945E-4,-.989E-5,0
